CCSDS_OMM_VERS = 2.0
CREATION_DATE  = 
ORIGINATOR     = 

OBJECT_NAME    = SILVERSAT
OBJECT_ID      = 1998-067XV
CENTER_NAME    = EARTH
REF_FRAME      = TEME
TIME_SYSTEM    = UTC
MEAN_ELEMENT_THEORY = SGP/SGP4

EPOCH          = 2026-02-03T23:06:58.474656
MEAN_MOTION    = 15.61798007
ECCENTRICITY   = .00029085
INCLINATION    = 51.6261
RA_OF_ASC_NODE = 236.1970
ARG_OF_PERICENTER = 193.0582
MEAN_ANOMALY   = 167.0336

EPHEMERIS_TYPE = 0
CLASSIFICATION_TYPE = U
NORAD_CAT_ID   = 66909
ELEMENT_SET_NO = 999
REV_AT_EPOCH   = 990
BSTAR          = .13238463E-2
MEAN_MOTION_DOT = .11815E-2
MEAN_MOTION_DDOT = 0

CCSDS_OMM_VERS = 2.0
CREATION_DATE  = 
ORIGINATOR     = 

OBJECT_NAME    = 1998-067XW
OBJECT_ID      = 1998-067XW
CENTER_NAME    = EARTH
REF_FRAME      = TEME
TIME_SYSTEM    = UTC
MEAN_ELEMENT_THEORY = SGP/SGP4

EPOCH          = 2026-02-03T20:18:58.527936
MEAN_MOTION    = 15.60565440
ECCENTRICITY   = .00011843
INCLINATION    = 51.6251
RA_OF_ASC_NODE = 236.9137
ARG_OF_PERICENTER = 186.8540
MEAN_ANOMALY   = 173.2437

EPHEMERIS_TYPE = 0
CLASSIFICATION_TYPE = U
NORAD_CAT_ID   = 66910
ELEMENT_SET_NO = 999
REV_AT_EPOCH   = 988
BSTAR          = .10525297E-2
MEAN_MOTION_DOT = .89123E-3
MEAN_MOTION_DDOT = 0

CCSDS_OMM_VERS = 2.0
CREATION_DATE  = 
ORIGINATOR     = 

OBJECT_NAME    = 1998-067XX
OBJECT_ID      = 1998-067XX
CENTER_NAME    = EARTH
REF_FRAME      = TEME
TIME_SYSTEM    = UTC
MEAN_ELEMENT_THEORY = SGP/SGP4

EPOCH          = 2026-02-02T23:27:52.039296
MEAN_MOTION    = 15.62627778
ECCENTRICITY   = .00023563
INCLINATION    = 51.6238
RA_OF_ASC_NODE = 240.8615
ARG_OF_PERICENTER = 210.9723
MEAN_ANOMALY   = 149.1132

EPHEMERIS_TYPE = 0
CLASSIFICATION_TYPE = U
NORAD_CAT_ID   = 66911
ELEMENT_SET_NO = 999
REV_AT_EPOCH   = 974
BSTAR          = .11666529E-2
MEAN_MOTION_DOT = .107333E-2
MEAN_MOTION_DDOT = 0

CCSDS_OMM_VERS = 2.0
CREATION_DATE  = 
ORIGINATOR     = 

OBJECT_NAME    = 1998-067XY
OBJECT_ID      = 1998-067XY
CENTER_NAME    = EARTH
REF_FRAME      = TEME
TIME_SYSTEM    = UTC
MEAN_ELEMENT_THEORY = SGP/SGP4

EPOCH          = 2026-02-03T23:09:20.657952
MEAN_MOTION    = 15.57987640
ECCENTRICITY   = .00018255
INCLINATION    = 51.6270
RA_OF_ASC_NODE = 236.9592
ARG_OF_PERICENTER = 145.1291
MEAN_ANOMALY   = 214.9821

EPHEMERIS_TYPE = 0
CLASSIFICATION_TYPE = U
NORAD_CAT_ID   = 66912
ELEMENT_SET_NO = 999
REV_AT_EPOCH   = 988
BSTAR          = .94008133E-3
MEAN_MOTION_DOT = .71942E-3
MEAN_MOTION_DDOT = 0

